NORAD_CAT_ID,OBJECT_NAME,OBJECT_TYPE,EPOCH,MEAN_MOTION,ECCENTRICITY,INCLINATION,RA_OF_ASC_NODE,ARG_OF_PERICENTER,MEAN_ANOMALY,BSTAR,MEAN_MOTION_DOT,MEAN_MOTION_DDOT,TLE_LINE0,TLE_LINE1,TLE_LINE2,SEMIMAJOR_AXIS,PERIOD,APOGEE,PERIGEE,DECAYED
56805.0,STARLINK-6064,PAYLOAD,2024-03-04 05:55:25,14.9833414,0.0002304,70.0026,18.675,256.0022,104.0881,8.0889e-05,8.72e-06,0.0,0 STARLINK-6064,1 56805U 23078AQ  24064.24682595  .00000872  00000-0  80889-4 0  9995,2 56805  70.0026  18.6750 0002304 256.0022 104.0881 14.98334140 43279,6950.18,96.107,573.646,570.444,0.0
56805.0,STARLINK-6064,PAYLOAD,2024-03-04 13:56:06,14.98320333,0.0002476,70.0021,17.8309,284.1973,75.8911,0.00025265,2.922e-05,0.0,0 STARLINK-6064,1 56805U 23078AQ  24064.58063124  .00002922  00000-0  25265-3 0  9997,2 56805  70.0021  17.8309 0002476 284.1973  75.8911 14.98320333 43326,6950.223,96.108,573.809,570.367,0.0
56805.0,STARLINK-6064,PAYLOAD,2024-03-04 21:56:47,14.98298269,0.0003293,70.0012,16.9891,274.4699,85.6084,0.00015769,1.788e-05,0.0,0 STARLINK-6064,1 56805U 23078AQ  24064.91444249  .00001788  00000-0  15769-3 0  9992,2 56805  70.0012  16.9891 0003293 274.4699  85.6084 14.98298269 43116,6950.291,96.109,574.445,569.867,0.0
56805.0,STARLINK-6064,PAYLOAD,2024-03-05 02:45:10,14.98332471,0.0003061,70.001,16.4843,275.1294,84.9516,0.00014175,1.599e-05,0.0,0 STARLINK-6064,1 56805U 23078AQ  24065.11470574  .00001599  00000-0  14175-3 0  9995,2 56805  70.0010  16.4843 0003061 275.1294  84.9516 14.98332471 43406,6950.185,96.107,574.178,569.923,0.0
56805.0,STARLINK-6064,PAYLOAD,2024-03-05 07:33:35,14.98323404,0.0002974,70.0012,15.9797,270.41,89.6719,2.28e-05,1.79e-06,0.0,0 STARLINK-6064,1 56805U 23078AQ  24065.31499462  .00000179  00000-0  22800-4 0  9992,2 56805  70.0012  15.9797 0002974 270.4100  89.6719 14.98323404 43173,6950.213,96.107,574.145,570.011,0.0
56805.0,STARLINK-6064,PAYLOAD,2024-03-05 20:22:40,14.98321679,0.0003244,70.0016,14.6322,272.2382,87.8406,-1.1661e-05,-2.32e-06,0.0,0 STARLINK-6064,1 56805U 23078AQ  24065.84907780 -.00000232  00000-0 -11661-4 0  9992,2 56805  70.0016  14.6322 0003244 272.2382  87.8406 14.98321679 43513,6950.219,96.108,574.338,569.829,0.0
56805.0,STARLINK-6064,PAYLOAD,2024-03-06 02:47:12,14.98331571,0.0002762,70.0016,13.9606,259.4384,100.6464,-3.8794e-05,-5.56e-06,0.0,0 STARLINK-6064,1 56805U 23078AQ  24066.11611285 -.00000556  00000-0 -38794-4 0  9990,2 56805  70.0016  13.9606 0002762 259.4384 100.6464 14.98331571 43557,6950.188,96.107,573.973,570.133,0.0
56805.0,STARLINK-6064,PAYLOAD,2024-03-06 05:59:28,14.98333091,0.0002776,70.0018,13.6245,261.9186,98.1658,-3.2316e-05,-4.79e-06,0.0,0 STARLINK-6064,1 56805U 23078AQ  24066.24963168 -.00000479  00000-0 -32316-4 0  9992,2 56805  70.0018  13.6245 0002776 261.9186  98.1658 14.98333091 43317,6950.183,96.107,573.978,570.119,0.0
56805.0,STARLINK-6064,PAYLOAD,2024-03-07 02:49:12,14.98336633,0.0003018,70.0014,11.4366,270.7067,89.3746,-1.1446e-05,-2.3e-06,0.0,0 STARLINK-6064,1 56805U 23078AQ  24067.11750895 -.00000230  00000-0 -11446-4 0  9996,2 56805  70.0014  11.4366 0003018 270.7067  89.3746 14.98336633 43707,6950.172,96.107,574.135,569.94,0.0
56805.0,STARLINK-6064,PAYLOAD,2024-03-07 14:02:09,14.98327749,0.0002552,70.0026,10.2586,273.4191,86.6676,3.4959e-05,3.24e-06,0.0,0 STARLINK-6064,1 56805U 23078AQ  24067.58483412  .00000324  00000-0  34959-4 0  9991,2 56805  70.0026  10.2586 0002552 273.4191  86.6676 14.98327749 43510,6950.2,96.107,573.839,570.291,0.0
56805.0,STARLINK-6064,PAYLOAD,2024-03-08 01:15:05,14.98328527,0.0002903,70.0017,9.0799,269.4121,90.6705,3.2695e-05,2.97e-06,0.0,0 STARLINK-6064,1 56805U 23078AQ  24068.05215276  .00000297  00000-0  32695-4 0  9999,2 56805  70.0017   9.0799 0002903 269.4121  90.6705 14.98328527 43849,6950.197,96.107,574.08,570.045,0.0
56805.0,STARLINK-6064,PAYLOAD,2024-03-08 06:03:29,14.98335912,0.0002817,70.0016,8.5751,269.0855,90.9981,4.0384e-05,3.89e-06,0.0,0 STARLINK-6064,1 56805U 23078AQ  24068.25242725  .00000389  00000-0  40384-4 0  9996,2 56805  70.0016   8.5751 0002817 269.0855  90.9981 14.98335912 43872,6950.175,96.107,573.997,570.082,0.0
56805.0,STARLINK-6064,PAYLOAD,2024-03-09 06:05:30,14.98337395,0.00024,70.0018,6.0509,260.2092,99.8796,-6.4777e-05,-8.66e-06,0.0,0 STARLINK-6064,1 56805U 23078AQ  24069.25382689 -.00000866  00000-0 -64777-4 0  9995,2 56805  70.0018   6.0509 0002400 260.2092  99.8796 14.98337395 44029,6950.17,96.107,573.703,570.367,0.0
56805.0,STARLINK-6064,PAYLOAD,2024-03-09 12:30:02,14.9835585,0.0002906,70.0021,5.377,277.3079,82.7749,-0.00042652,-5.182e-05,0.0,0 STARLINK-6064,1 56805U 23078AQ  24069.52086264 -.00005182  00000-0 -42652-3 0  9998,2 56805  70.0021   5.3770 0002906 277.3079  82.7749 14.98355850 43800,6950.113,96.105,573.998,569.958,0.0
56805.0,STARLINK-6064,PAYLOAD,2024-03-10 02:55:15,14.98334363,0.0002565,70.0016,3.8615,274.151,85.9356,1.7687e-05,1.18e-06,0.0,0 STARLINK-6064,1 56805U 23078AQ  24070.12170632  .00000118  00000-0  17687-4 0  9992,2 56805  70.0016   3.8615 0002565 274.1510  85.9356 14.98334363 44155,6950.179,96.107,573.827,570.262,0.0
56805.0,STARLINK-6064,PAYLOAD,2024-03-10 12:32:04,14.98331478,0.0001809,70.0041,2.8511,289.6884,70.408,-2.9816e-05,-4.49e-06,0.0,0 STARLINK-6064,1 56805U 23078AQ  24070.52227106 -.00000449  00000-0 -29816-4 0  9991,2 56805  70.0041   2.8511 0001809 289.6884  70.4080 14.98331478 43956,6950.188,96.107,573.311,570.796,0.0
56805.0,STARLINK-6064,PAYLOAD,2024-03-10 20:32:44,14.9832453,0.000235,70.0046,2.0113,279.8859,80.2034,1.9658e-05,1.42e-06,0.0,0 STARLINK-6064,1 56805U 23078AQ  24070.85607090  .00000142  00000-0  19658-4 0  9992,2 56805  70.0046   2.0113 0002350 279.8859  80.2034 14.98324530 44260,6950.21,96.107,573.708,570.442,0.0
56805.0,STARLINK-6064,PAYLOAD,2024-03-10 22:08:52,14.98326476,0.0002943,70.0013,1.8425,269.3423,90.7399,-0.00011872,-1.509e-05,0.0,0 STARLINK-6064,1 56805U 23078AQ  24070.92283255 -.00001509  00000-0 -11872-3 0  9992,2 56805  70.0013   1.8425 0002943 269.3423  90.7399 14.98326476 44010,6950.204,96.107,574.114,570.023,0.0
56805.0,STARLINK-6064,PAYLOAD,2024-03-11 12:34:05,14.98323025,0.0003012,70.0004,0.3273,270.7312,89.3502,4.778e-05,4.77e-06,0.0,0 STARLINK-6064,1 56805U 23078AQ  24071.52367011  .00000477  00000-0  47780-4 0  9991,2 56805  70.0004   0.3273 0003012 270.7312  89.3502 14.98323025 44103,6950.214,96.107,574.173,569.986,0.0
56805.0,STARLINK-6064,PAYLOAD,2024-03-12 04:35:25,14.98325865,0.0002714,70.0005,358.6443,273.8904,86.1945,8.7606e-05,9.52e-06,0.0,0 STARLINK-6064,1 56805U 23078AQ  24072.19126797  .00000952  00000-0  87606-4 0  9998,2 56805  70.0005 358.6443 0002714 273.8904  86.1945 14.98325865 44460,6950.206,96.107,573.957,570.184,0.0
56805.0,STARLINK-6064,PAYLOAD,2024-03-13 04:37:26,14.98331521,0.0002889,70.0005,356.1191,268.9845,91.0983,4.581e-05,4.54e-06,0.0,0 STARLINK-6064,1 56805U 23078AQ  24073.19266511  .00000454  00000-0  45810-4 0  9996,2 56805  70.0005 356.1191 0002889 268.9845  91.0983 14.98331521 44615,6950.188,96.107,574.061,570.045,0.0
56805.0,STARLINK-6064,PAYLOAD,2024-03-13 12:38:06,14.98330046,0.0002831,70.0008,355.2763,269.4225,90.6609,2.7397e-05,2.34e-06,0.0,0 STARLINK-6064,1 56805U 23078AQ  24073.52646642  .00000234  00000-0  27397-4 0  9996,2 56805  70.0008 355.2763 0002831 269.4225  90.6609 14.98330046 44406,6950.193,96.107,574.025,570.09,0.0
56805.0,STARLINK-6064,PAYLOAD,2024-03-13 22:14:55,14.98327078,0.0002853,70.0007,354.2668,269.1476,90.9356,2.5408e-05,2.1e-06,0.0,0 STARLINK-6064,1 56805U 23078AQ  24073.92702857  .00000210  00000-0  25408-4 0  9996,2 56805  70.0007 354.2668 0002853 269.1476  90.9356 14.98327078 44466,6950.202,96.107,574.05,570.084,0.0
56805.0,STARLINK-6064,PAYLOAD,2024-03-14 04:39:27,14.98333988,0.0002868,70.0006,353.5935,268.7669,91.3162,4.4311e-05,4.36e-06,0.0,0 STARLINK-6064,1 56805U 23078AQ  24074.19406310  .00000436  00000-0  44311-4 0  9995,2 56805  70.0006 353.5935 0002868 268.7669  91.3162 14.98333988 44769,6950.181,96.107,574.039,570.052,0.0
56805.0,STARLINK-6064,PAYLOAD,2024-03-14 22:16:56,14.98330789,0.0002569,70.0013,351.7426,273.887,86.1995,-1.5965e-05,-2.83e-06,0.0,0 STARLINK-6064,1 56805U 23078AQ  24074.92842673 -.00000283  00000-0 -15965-4 0  9997,2 56805  70.0013 351.7426 0002569 273.8870  86.1995 14.98330789 44617,6950.19,96.107,573.841,570.27,0.0
56805.0,STARLINK-6064,PAYLOAD,2024-03-15 04:41:28,14.98332168,0.0002584,70.0012,351.0691,272.9393,87.1471,1.9404e-06,-7e-07,0.0,0 STARLINK-6064,1 56805U 23078AQ  24075.19546503 -.00000070  00000-0  19404-5 0  9996,2 56805  70.0012 351.0691 0002584 272.9393  87.1471 14.98332168 44916,6950.186,96.107,573.847,570.255,0.0
56805.0,STARLINK-6064,PAYLOAD,2024-03-15 22:18:57,14.98330049,0.0002539,70.0011,349.2176,271.1591,88.9277,-3.1933e-05,-4.74e-06,0.0,0 STARLINK-6064,1 56805U 23078AQ  24075.92982672 -.00000474  00000-0 -31933-4 0  9997,2 56805  70.0011 349.2176 0002539 271.1591  88.9277 14.98330049 44765,6950.193,96.107,573.822,570.293,0.0
56805.0,STARLINK-6064,PAYLOAD,2024-03-16 03:07:21,14.98329412,0.0002563,70.0011,348.7138,267.0505,93.036,-4.2655e-05,-6.02e-06,0.0,0 STARLINK-6064,1 56805U 23078AQ  24076.13010711 -.00000602  00000-0 -42655-4 0  9993,2 56805  70.0011 348.7138 0002563 267.0505  93.0360 14.98329412 44798,6950.195,96.107,573.841,570.278,0.0
56805.0,STARLINK-6064,PAYLOAD,2024-03-16 20:44:49,14.98329091,0.0002698,70.0007,346.8623,264.4299,95.6552,-1.5542e-05,-2.78e-06,0.0,0 STARLINK-6064,1 56805U 23078AQ  24076.86446601 -.00000278  00000-0 -15542-4 0  9998,2 56805  70.0007 346.8623 0002698 264.4299  95.6552 14.98329091 45167,6950.196,96.107,573.936,570.186,0.0
56805.0,STARLINK-6064,PAYLOAD,2024-03-16 22:20:57,14.98328904,0.0002711,70.0007,346.694,264.2665,95.8185,-1.7836e-05,-3.06e-06,0.0,0 STARLINK-6064,1 56805U 23078AQ  24076.93122619 -.00000306  00000-0 -17836-4 0  9996,2 56805  70.0007 346.6940 0002711 264.2665  95.8185 14.98328904 44916,6950.196,96.107,573.945,570.177,0.0
